0 MINXSS1 41474U 98067HU  16221.18937422  .00026714  00000-0  33892-3 0  99962 41474  51.6414 156.9098 0002286  28.4710 331.6407 15.59235789 13047